GLOBALSTAR M045         
1 25676U 99019A   24271.47166902 -.00000075  00000+0  16778-3 0  9999
2 25676  51.9994 334.0586 0000762  97.3568 276.1522 12.27044998161141
GLOBALSTAR M044         
1 25678U 99019C   24271.50163740  .00000002  00000+0  11924-2 0  9998
2 25678  52.0007   4.3514 0005938 249.9115 193.8136 11.90240073140044
GLOBALSTAR M042         
1 25679U 99019D   24271.69292888 -.00000030  00000+0  58767-3 0  9994
2 25679  52.0009  71.9718 0003741 110.7786   0.4130 12.22068686153160
GLOBALSTAR M025         
1 25770U 99031A   24271.82330111 -.00000092  00000+0 -75727-3 0  9991
2 25770  51.9836  47.0515 0002131  77.3517  77.0063 11.22553840452245
GLOBALSTAR M047         
1 25772U 99031C   24271.78693328 -.00000063  00000+0  18396-3 0  9996
2 25772  51.9815  90.7516 0016399 168.8242 191.2931 11.31923254441399
GLOBALSTAR M052         
1 25773U 99031D   24271.83382454 -.00000019  00000+0  15790-2 0  9993
2 25773  51.9852 180.9750 0003095  85.3584 317.4241 11.15054187449244
